{"type":"FeatureCollection","features":[{"type":"Feature","properties":{},"geometry":{"coordinates":[[116.99515541973602,-0.4324330496513227],[116.99562795096887,-0.43232210568930896],[116.99589119559823,-0.43320142943683493],[116.9962635960834,-0.4343413295651999],[116.99666340682813,-0.43540948854573003],[116.9972631554333,-0.43674059413800137],[116.9983122889455,-0.43911770691850904],[116.99914784693777,-0.44072546320022354],[116.99998804918499,-0.44194448067871406],[117.00030498858689,-0.4424639842881817],[117.00040991624769,-0.44310802124503823],[117.00043670324817,-0.4438075822974099],[117.0003169047194,-0.4441997555098425],[117.00013060700547,-0.44444320321812825],[117.00010870585481,-0.44479847020818397],[117.00039374329509,-0.44622910409273686],[117.00090412077122,-0.44714029511177955],[117.00095658460071,-0.44746231339307485],[117.00078306631485,-0.4475398934113173],[117.00060348854174,-0.4475629848026159],[117.00044891924665,-0.4474833783890375],[117.00039405363731,-0.44713040316248964],[117.00025298920542,-0.4460678197834511],[117.00002740229758,-0.4451436944608105],[116.99981851719139,-0.44448207879923984],[116.99956627066877,-0.4443477635584685],[116.99907471222252,-0.4443639150752574],[116.99848367024293,-0.44456182052441306],[116.99826892649418,-0.4447928193946211],[116.99828847095887,-0.44490305257613727],[116.99855556846177,-0.4450398795870427],[116.99881693670511,-0.4449847954877839],[116.99918521397194,-0.44474921335347517],[117.00627537011098,-0.4438526408783616],[117.00673311218571,-0.44349100820471676],[117.00675913867377,-0.443169662124248],[117.00629453030149,-0.442567052426071],[117.00584195737008,-0.4416948465701438],[117.00667656783804,-0.43900545105653066],[117.00684709397342,-0.43789516714232946],[117.0068176458069,-0.4366327520032627],[117.00653748636535,-0.43584339154716645],[117.00651923879792,-0.4357673881486903],[117.0064433495782,-0.435156908328139],[117.00644780758802,-0.4350231718737092],[117.0066484180532,-0.4349473878812944],[117.0069916848517,-0.4349518457636776],[117.00731266159897,-0.4348760617705807],[117.00753110410557,-0.4347066622549107],[117.00788417972979,-0.4344222426924631],[117.00831050423488,-0.4340029963803289],[117.00886724470155,-0.4335397849718987],[117.00915038828492,-0.43322518998918724],[117.00943353187023,-0.43272183798924857],[117.00977173115132,-0.43235612128077605],[117.0102200384818,-0.43212017382673196],[117.01059363071226,-0.43203759262931385],[117.01197723388026,-0.4323348110734173],[117.01271618742965,-0.4325949153126203],[117.01340784795207,-0.4330441862517631],[117.01422249297286,-0.43359546999337795],[117.01639719643458,-0.43342244113792106],[117.01750224169723,-0.4332690754979751],[117.01804099907372,-0.4329780722335954],[117.01842245640279,-0.4326241528510053],[117.01872526273638,-0.4324118012130924],[117.01899660866991,-0.43234494977012616],[117.02043985118252,-0.43268314165052857],[117.02079771741415,-0.4326674103510868],[117.02116737709338,-0.4324943830918926],[117.02145838577724,-0.43217978806575275],[117.02228422126848,-0.43135397594193137],[117.02253197190447,-0.43125173254482263],[117.02283084568876,-0.43121240816101647],[117.02317297751921,-0.43135397594193137],[117.0234718513035,-0.43157419248581164],[117.02549938810591,-0.4331052812782019],[117.02609687465082,-0.433223462052851],[117.02646455867858,-0.4333153804311678],[117.02685850584942,-0.43359770115861807],[117.0274625581813,-0.4341098178001772],[117.0277449833278,-0.4343263387014531],[117.02806819390082,-0.4343743821352035],[117.0282996825552,-0.43437874972059376],[117.02871024733679,-0.43428266285194184],[117.02918196006544,-0.4342215166610828],[117.02944402269134,-0.4342477221721026],[117.02991573541999,-0.4343743821352035],[117.03036124188498,-0.4346582751507668],[117.03076743895667,-0.4349858440003942],[117.03106443891357,-0.43528284512530035],[117.03121730877928,-0.4357065008005776],[117.03122604419906,-0.4363572708112713],[117.03126535194292,-0.43719584690889235],[117.03132213217793,-0.43739675573695536],[117.03164534275089,-0.43776363271560115],[117.0325581958731,-0.4384362411585414],[117.03281152307915,-0.4385192252271821],[117.03703073414835,-0.43902149159089277],[117.03748497603323,-0.43899528609755123],[117.03792174707843,-0.43877253940006256],[117.0404918790885,-0.43720695111107943],[117.04108312608935,-0.4365671280233272],[117.04156098310943,-0.4358625118233874],[117.0419578474129,-0.4355790455176418],[117.04233851317326,-0.4354737580303123],[117.04311604323715,-0.43573292722821577],[117.04399886383106,-0.4361621761920276],[117.04514895069411,-0.4364537512361153],[117.04586168658608,-0.4365347416005392],[117.04676879823268,-0.43678581623940715],[117.04710896763669,-0.43689920274441363],[117.04732764796756,-0.43689110370836204],[117.04824286564741,-0.43637276538436254],[117.04868021091835,-0.43616219909620213],[117.04928765628017,-0.43615410005938315],[117.0501785761466,-0.43638897212426286],[117.05065642044838,-0.4364051741996917],[117.05109378110814,-0.43617840117211415],[117.05158782145071,-0.4353037035913303],[117.05204947992786,-0.4345180968880129],[117.0522357631728,-0.43364340066897],[117.0527540839588,-0.4288222325360067],[117.05270929820813,-0.42735305606136365],[117.05283888365727,-0.4266322409155521],[117.05337343557676,-0.4253039970968757],[117.05368120304365,-0.4232549357377309],[117.05410236160719,-0.4222182551423259],[117.05444253101126,-0.4217890053953397],[117.05504997637303,-0.4214407461498979],[117.05637826716833,-0.42150554230387627],[117.05737447756303,-0.4218133062865803],[117.05892953769256,-0.42284998487615155],[117.05973136556986,-0.4232549374120964],[117.06118113550451,-0.4234088107452152],[117.0626066072885,-0.4231820373318129],[117.06312496066505,-0.42310914587635295],[117.06380529947108,-0.4234655040972797],[117.06475291423686,-0.4241620223919682],[117.06540895840959,-0.4250205312949049],[117.06576532635648,-0.4260410113590325],[117.06574162701855,-0.42676447476098645],[117.06569664949069,-0.4273491663696234],[117.06565167196283,-0.42796983895151186],[117.06514792366283,-0.4288963501034857],[117.06528285584852,-0.4294720439852284],[117.06708195692653,-0.4307583650101634],[117.06754040401245,-0.4311888203908012],[117.06781206137202,-0.4318776463031071],[117.06803035788653,-0.43269259421208517],[117.0682826111514,-0.433153428365074],[117.0686221828521,-0.43337171821697495],[117.06898600967361,-0.4333862708729157],[117.06931587932468,-0.43324074430636017],[117.0697282163901,-0.4325955764913232],[117.07027152923627,-0.4312664325513964],[117.0705092250177,-0.4310966514531458],[117.0718287015668,-0.4309220189898326],[117.07204214383347,-0.43069887743216384],[117.07213916431908,-0.43007796384016217],[117.07285427472954,-0.42921032230867695],[117.07386177133174,-0.4284817067822928],[117.07436551963389,-0.428373763735749],[117.0750851600647,-0.42858964982728764],[117.07584078251682,-0.4289494599673844],[117.07653343643261,-0.42884151692743444],[117.07699220720696,-0.4288055359138099],[117.07758591056273,-0.4289494599673844],[117.07809865436917,-0.4288954884476226],[117.07888648490098,-0.42849602651456564],[117.07966323770188,-0.4280077955332757],[117.08103917949393,-0.4276305296333476],[117.08198238338684,-0.4273087413291563],[117.08292558324604,-0.4273309336423665],[117.08372452899687,-0.42740860675746717],[117.08405742305519,-0.42728654899848095],[117.08422387008363,-0.426953664189881],[117.08461224648477,-0.4264432407894958],[117.08613246268351,-0.4261880290759592],[117.08689810669858,-0.425411297804942],[117.08779692065502,-0.42506731675213416],[117.08835173847609,-0.42419072036690864],[117.08848489609886,-0.4237357776095223],[117.08928350927368,-0.42314077865067645],[117.0897879747493,-0.4231704522810418],[117.09024792856536,-0.4238084353076488],[117.09063369628052,-0.42416451883535444],[117.09158327835235,-0.4240903347688345],[117.09208774382802,-0.42404582432763505],[117.09309667477908,-0.42422386608804175],[117.09544096635409,-0.42483219123606375],[117.09613831568726,-0.42538115326077275],[117.0966724556024,-0.42604880972515957],[117.09707306053923,-0.4262713618671228],[117.09759236323458,-0.4262861986762374],[117.09814134036958,-0.4262565250579229],[117.09851227086676,-0.4263158722945519],[117.09888320136224,-0.4264494035753188],[117.09934315517825,-0.42690934463760755],[117.09931348073866,-0.4273841224794239],[117.09894255024147,-0.4280517787691167],[117.09851227086676,-0.42923872314182177],[117.09822012195656,-0.4317089543326489],[117.09866033675053,-0.43269940943818597],[117.0989904978448,-0.43311209902765313],[117.09873639397665,-0.4341374190767624],[117.09780164912638,-0.4345825228813993],[117.09754941638772,-0.4347160540182813],[117.09737136519084,-0.43499795620518],[117.09756424904845,-0.4370751068346834],[117.09842480780134,-0.43793564049848044],[117.0991815039821,-0.4389000310657565],[117.10005689896917,-0.4407249550417447],[117.10039815487346,-0.44219379632802713],[117.10032396877443,-0.4431730236110525],[117.09973047997994,-0.4448050687943379],[117.09978982812811,-0.4451759858659017],[117.10082843351881,-0.44622939660337124],[117.10188187879544,-0.44694156350701064],[117.10238634427094,-0.44780209602654963],[117.10296499584558,-0.44892969020948215],[117.1031875541446,-0.44962701810462136],[117.1047602994505,-0.4502353253623852],[117.1058879281602,-0.4505765708749294],[117.10707490574907,-0.4504282032631295],[117.10829155777759,-0.4501759783152579],[117.10858830217569,-0.4499979371700533],[117.1090630932116,-0.44952316076221166],[117.10953788424752,-0.4492857725467587],[117.11001267528161,-0.4493747931290528],[117.1107693382445,-0.4499237465771273],[117.11134798981914,-0.45084362578792536],[117.11160022255598,-0.45168932108902027],[117.11136282703887,-0.452445995749045],[117.11143698935308,-0.453083970624931],[117.11250526918343,-0.45427091100472694],[117.1133658128361,-0.45525013232710876],[117.11404832514813,-0.45637772544067445],[117.11424120900762,-0.4570453791226896],[117.11427086794282,-0.4577427057482737],[117.1141224957446,-0.45826199185241023],[117.1139296118871,-0.45881095140723005],[117.1139296118871,-0.45953795183413604],[117.1144044029212,-0.4601017480323577],[117.11480500785797,-0.4608732585474371],[117.11524497893595,-0.4618589065377847],[117.11666935204369,-0.46355029444686124],[117.11732218971736,-0.46445533517955084],[117.11861302784502,-0.4652416819519374],[117.11980000543565,-0.465864824615565],[117.12045284310943,-0.46688855887011016],[117.12085172585194,-0.4682875088322618],[117.12210577939669,-0.46949282090608335],[117.12298407600258,-0.4740475728387281],[117.12355684456901,-0.47377358925616875],[117.12441219680022,-0.4732678330352087],[117.12505928935849,-0.47293314139842835],[117.12557993854296,-0.47295545417465235],[117.12620471756384,-0.4731265187900675],[117.12670305321092,-0.4729926421349262],[117.12744682935448,-0.4726282033199425],[117.12860712796657,-0.4722563262672992],[117.129135211034,-0.4719067607635026],[117.12961122669003,-0.47190676438324886],[117.13007981095535,-0.4719662651284722],[117.130637649368,-0.47181007567026256],[117.13748046250424,-0.4721894104856972],[117.13835069042648,-0.4724199758612997],[117.13849944733573,-0.4726059156756435],[117.13832128688472,-0.47308518819073697],[117.13824212169885,-0.4734760529626243],[117.1382866521177,-0.47405492859607534],[117.13827180864479,-0.4741736723094334],[117.13821738257889,-0.4744111597312042],[117.13858846938831,-0.47459422294629405]],"type":"LineString"}}]}